ATLAS CENTAUR 2         
1 00694U 63047A   26085.44122382  .00002027  00000+0  23329-3 0  9998
2 00694  30.3562 102.0187 0547422 227.9304 127.3468 14.12131187133995
THOR AGENA D R/B        
1 00733U 64002A   26085.89570900  .00000187  00000+0  83893-4 0  9994
2 00733  99.1216 100.1708 0032473 206.8297 153.1208 14.34028914240768
SL-3 R/B                
1 00877U 64053B   26085.86880035  .00000189  00000+0  60766-4 0  9995
2 00877  65.0756 280.8702 0080344 286.8142  72.4156 14.61379577269305
SL-8 R/B                
1 02802U 67045B   26085.59864647  .00000273  00000+0  83134-4 0  9998
2 02802  74.0115 316.5125 0064801 319.0193  40.6103 14.45635791 91469
SL-8 R/B                
1 03230U 68040B   26085.87912564  .00003950  00000+0  29198-3 0  9997
2 03230  74.0295 278.5652 0023283  95.5721 264.8123 15.03368090 92595
OAO 2                   
1 03597U 68110A   26085.61598318  .00000217  00000+0  63457-4 0  9990
2 03597  34.9925 170.7168 0005913 328.5487  31.4849 14.47316969 21555
ISIS 1                  
1 03669U 69009A   26085.44659810  .00000110  00000+0  63729-4 0  9998
2 03669  88.4513 153.4802 1707867  55.3601 319.6804 11.30418436350420
SERT 2                  
1 04327U 70009A   26085.42358925  .00000010  00000+0  70824-4 0  9996
2 04327  99.2779  27.6033 0005578 116.8322 351.1227 13.58731364782166
SL-3 R/B                
1 05118U 71028B   26085.89014289  .00046062  00000+0  51065-3 0  9992
2 05118  81.2367  30.7626 0014207 213.4447 146.5911 15.62633322991354
ASTEX 1                 
1 05560U 71089A   26085.65172306  .00000395  00000+0  10036-3 0  9991
2 05560  92.7096 157.2423 0016674  34.9213 325.3083 14.50786517864760
SL-8 R/B                
1 05730U 71119B   26085.70170105  .00007035  00000+0  36870-3 0  9997
2 05730  73.8857 143.9138 0546666 106.9465 259.2339 14.38190549657935
OAO 3 (COPERNICUS)      
1 06153U 72065A   26085.71176435  .00000315  00000+0  68887-4 0  9999
2 06153  35.0049 200.3314 0007249 297.9031 206.8290 14.60010998848683
